{"fetched_at":"2026-07-16T06:42:33.601Z","source":"https://celestrak.org/NORAD/elements/gp.php?GROUP=oneweb&FORMAT=JSON","constellation":"oneweb","records":[{"OBJECT_NAME":"ONEWEB-0233","OBJECT_ID":"2021-045AE","EPOCH":"2026-07-15T22:05:41.010720","CLASSIFICATION_TYPE":"U","MEAN_MOTION":13.1555068,"ECCENTRICITY":0.00022711,"INCLINATION":87.8982,"RA_OF_ASC_NODE":253.5093,"ARG_OF_PERICENTER":104.242,"MEAN_ANOMALY":255.8963,"EPHEMERIS_TYPE":0,"NORAD_CAT_ID":48795,"ELEMENT_SET_NO":999,"REV_AT_EPOCH":24807,"BSTAR":0.00045080333,"MEAN_MOTION_DOT":0.00000183,"MEAN_MOTION_DDOT":0},{"OBJECT_NAME":"ONEWEB-0190","OBJECT_ID":"2021-045AF","EPOCH":"2026-07-15T12:40:01.333344","CLASSIFICATION_TYPE":"U","MEAN_MOTION":13.1554945,"ECCENTRICITY":0.00022631,"INCLINATION":87.8993,"RA_OF_ASC_NODE":253.5511,"ARG_OF_PERICENTER":116.9038,"MEAN_ANOMALY":243.2324,"EPHEMERIS_TYPE":0,"NORAD_CAT_ID":48796,"ELEMENT_SET_NO":999,"REV_AT_EPOCH":24809,"BSTAR":0.00070641312,"MEAN_MOTION_DOT":0.00000279,"MEAN_MOTION_DDOT":0},{"OBJECT_NAME":"ONEWEB-0236","OBJECT_ID":"2021-045AG","EPOCH":"2026-07-15T13:05:07.619712","CLASSIFICATION_TYPE":"U","MEAN_MOTION":13.1554891,"ECCENTRICITY":0.0002151,"INCLINATION":87.8984,"RA_OF_ASC_NODE":253.5554,"ARG_OF_PERICENTER":95.9596,"MEAN_ANOMALY":264.178,"EPHEMERIS_TYPE":0,"NORAD_CAT_ID":48797,"ELEMENT_SET_NO":999,"REV_AT_EPOCH":24798,"BSTAR":0.00053546,"MEAN_MOTION_DOT":0.00000214,"MEAN_MOTION_DDOT":0},{"OBJECT_NAME":"ONEWEB-0248","OBJECT_ID":"2021-045AH","EPOCH":"2026-07-15T04:15:45.391680","CLASSIFICATION_TYPE":"U","MEAN_MOTION":13.15549505,"ECCENTRICITY":0.00024481,"INCLINATION":87.8995,"RA_OF_ASC_NODE":253.6154,"ARG_OF_PERICENTER":106.6718,"MEAN_ANOMALY":253.4681,"EPHEMERIS_TYPE":0,"NORAD_CAT_ID":48798,"ELEMENT_SET_NO":999,"REV_AT_EPOCH":24809,"BSTAR":0.000048120589,"MEAN_MOTION_DOT":3.1e-7,"MEAN_MOTION_DDOT":0},{"OBJECT_NAME":"ONEWEB-0225","OBJECT_ID":"2021-045AJ","EPOCH":"2026-07-15T04:47:42.754560","CLASSIFICATION_TYPE":"U","MEAN_MOTION":13.15547866,"ECCENTRICITY":0.0002239,"INCLINATION":87.8988,"RA_OF_ASC_NODE":253.6177,"ARG_OF_PERICENTER":112.171,"MEAN_ANOMALY":247.9658,"EPHEMERIS_TYPE":0,"NORAD_CAT_ID":48799,"ELEMENT_SET_NO":999,"REV_AT_EPOCH":24810,"BSTAR":-0.000085642947,"MEAN_MOTION_DOT":-1.9e-7,"MEAN_MOTION_DDOT":0},{"OBJECT_NAME":"ONEWEB-0215","OBJECT_ID":"2021-045AK","EPOCH":"2026-07-15T13:11:57.549696","CLASSIFICATION_TYPE":"U","MEAN_MOTION":13.15549259,"ECCENTRICITY":0.0002422,"INCLINATION":87.8997,"RA_OF_ASC_NODE":253.5321,"ARG_OF_PERICENTER":113.9361,"MEAN_ANOMALY":246.2023,"EPHEMERIS_TYPE":0,"NORAD_CAT_ID":48800,"ELEMENT_SET_NO":999,"REV_AT_EPOCH":24802,"BSTAR":0.00020395,"MEAN_MOTION_DOT":9e-7,"MEAN_MOTION_DDOT":0},{"OBJECT_NAME":"ONEWEB-0216","OBJECT_ID":"2021-045AL","EPOCH":"2026-07-15T04:18:02.838528","CLASSIFICATION_TYPE":"U","MEAN_MOTION":13.15548532,"ECCENTRICITY":0.00020129,"INCLINATION":87.8993,"RA_OF_ASC_NODE":253.6199,"ARG_OF_PERICENTER":97.3403,"MEAN_ANOMALY":262.7956,"EPHEMERIS_TYPE":0,"NORAD_CAT_ID":48801,"ELEMENT_SET_NO":999,"REV_AT_EPOCH":24798,"BSTAR":-0.000065867623,"MEAN_MOTION_DOT":-1.2e-7,"MEAN_MOTION_DDOT":0},{"OBJECT_NAME":"ONEWEB-0239","OBJECT_ID":"2021-045AM","EPOCH":"2026-07-15T04:24:53.690400","CLASSIFICATION_TYPE":"U","MEAN_MOTION":13.15548141,"ECCENTRICITY":0.00027343,"INCLINATION":87.8981,"RA_OF_ASC_NODE":253.6229,"ARG_OF_PERICENTER":111.1498,"MEAN_ANOMALY":248.9925,"EPHEMERIS_TYPE":0,"NORAD_CAT_ID":48802,"ELEMENT_SET_NO":999,"REV_AT_EPOCH":24802,"BSTAR":-0.000068324926,"MEAN_MOTION_DOT":-1.3e-7,"MEAN_MOTION_DDOT":0},{"OBJECT_NAME":"ONEWEB-0249","OBJECT_ID":"2021-060A","EPOCH":"2026-07-15T11:25:03.568800","CLASSIFICATION_TYPE":"U","MEAN_MOTION":13.1659229,"ECCENTRICITY":0.00021704,"INCLINATION":87.908,"RA_OF_ASC_NODE":223.1588,"ARG_OF_PERICENTER":95.3976,"MEAN_ANOMALY":264.7403,"EPHEMERIS_TYPE":0,"NORAD_CAT_ID":48967,"ELEMENT_SET_NO":999,"REV_AT_EPOCH":24333,"BSTAR":-0.000027544961,"MEAN_MOTION_DOT":2e-8,"MEAN_MOTION_DDOT":0},{"OBJECT_NAME":"ONEWEB-0250","OBJECT_ID":"2021-060B","EPOCH":"2026-07-15T18:12:45.835776","CLASSIFICATION_TYPE":"U","MEAN_MOTION":13.25835589,"ECCENTRICITY":0.00030614,"INCLINATION":87.908,"RA_OF_ASC_NODE":220.7658,"ARG_OF_PERICENTER":85.625,"MEAN_ANOMALY":274.5236,"EPHEMERIS_TYPE":0,"NORAD_CAT_ID":48968,"ELEMENT_SET_NO":999,"REV_AT_EPOCH":24400,"BSTAR":0.00022799264,"MEAN_MOTION_DOT":0.00000113,"MEAN_MOTION_DDOT":0},{"OBJECT_NAME":"ONEWEB-0252","OBJECT_ID":"2021-060D","EPOCH":"2026-07-15T12:09:32.666976","CLASSIFICATION_TYPE":"U","MEAN_MOTION":13.16595008,"ECCENTRICITY":0.00018587,"INCLINATION":87.9078,"RA_OF_ASC_NODE":223.145,"ARG_OF_PERICENTER":96.4106,"MEAN_ANOMALY":263.7236,"EPHEMERIS_TYPE":0,"NORAD_CAT_ID":48970,"ELEMENT_SET_NO":999,"REV_AT_EPOCH":24338,"BSTAR":0.000095225569,"MEAN_MOTION_DOT":4.9e-7,"MEAN_MOTION_DDOT":0},{"OBJECT_NAME":"ONEWEB-0253","OBJECT_ID":"2021-060E","EPOCH":"2026-07-15T11:53:35.219328","CLASSIFICATION_TYPE":"U","MEAN_MOTION":13.16595129,"ECCENTRICITY":0.00022153,"INCLINATION":87.9079,"RA_OF_ASC_NODE":223.1525,"ARG_OF_PERICENTER":93.5373,"MEAN_ANOMALY":266.6012,"EPHEMERIS_TYPE":0,"NORAD_CAT_ID":48971,"ELEMENT_SET_NO":999,"REV_AT_EPOCH":24331,"BSTAR":-0.000042145233,"MEAN_MOTION_DOT":-3e-8,"MEAN_MOTION_DDOT":0},{"OBJECT_NAME":"ONEWEB-0254","OBJECT_ID":"2021-060F","EPOCH":"2026-07-15T12:07:16.555872","CLASSIFICATION_TYPE":"U","MEAN_MOTION":13.16593965,"ECCENTRICITY":0.00023217,"INCLINATION":87.908,"RA_OF_ASC_NODE":223.1489,"ARG_OF_PERICENTER":99.0591,"MEAN_ANOMALY":261.0802,"EPHEMERIS_TYPE":0,"NORAD_CAT_ID":48972,"ELEMENT_SET_NO":999,"REV_AT_EPOCH":24331,"BSTAR":0.000061495213,"MEAN_MOTION_DOT":3.6e-7,"MEAN_MOTION_DDOT":0},{"OBJECT_NAME":"ONEWEB-0255","OBJECT_ID":"2021-060G","EPOCH":"2026-07-15T13:01:59.553696","CLASSIFICATION_TYPE":"U","MEAN_MOTION":13.16594293,"ECCENTRICITY":0.00021616,"INCLINATION":87.908,"RA_OF_ASC_NODE":223.1472,"ARG_OF_PERICENTER":98.2698,"MEAN_ANOMALY":261.8678,"EPHEMERIS_TYPE":0,"NORAD_CAT_ID":48973,"ELEMENT_SET_NO":999,"REV_AT_EPOCH":24339,"BSTAR":0.00012479106,"MEAN_MOTION_DOT":6.1e-7,"MEAN_MOTION_DDOT":0},{"OBJECT_NAME":"ONEWEB-0256","OBJECT_ID":"2021-060H","EPOCH":"2026-07-15T11:50:09.983040","CLASSIFICATION_TYPE":"U","MEAN_MOTION":13.16583303,"ECCENTRICITY":0.00017719,"INCLINATION":87.9072,"RA_OF_ASC_NODE":223.16,"ARG_OF_PERICENTER":92.928,"MEAN_ANOMALY":267.2054,"EPHEMERIS_TYPE":0,"NORAD_CAT_ID":48974,"ELEMENT_SET_NO":999,"REV_AT_EPOCH":24335,"BSTAR":-0.0030559747,"MEAN_MOTION_DOT":-0.00001155,"MEAN_MOTION_DDOT":0},{"OBJECT_NAME":"ONEWEB-0257","OBJECT_ID":"2021-060J","EPOCH":"2026-07-15T12:36:54.584928","CLASSIFICATION_TYPE":"U","MEAN_MOTION":13.16595849,"ECCENTRICITY":0.00020843,"INCLINATION":87.9079,"RA_OF_ASC_NODE":223.1421,"ARG_OF_PERICENTER":100.3125,"MEAN_ANOMALY":259.8241,"EPHEMERIS_TYPE":0,"NORAD_CAT_ID":48975,"ELEMENT_SET_NO":999,"REV_AT_EPOCH":24331,"BSTAR":0.000775045,"MEAN_MOTION_DOT":0.00000309,"MEAN_MOTION_DDOT":0}]}
